{
  "links" : {
    "next" : "https://api.nasa.gov/neo/rest/v1/feed?start_date=1998-02-16&end_date=1998-02-16&detailed=true&api_key=t0TVs3DtDT2H8Oy2Zy8m2eVrNsAVKAexjcZXUckd",
    "prev" : "https://api.nasa.gov/neo/rest/v1/feed?start_date=1998-02-14&end_date=1998-02-14&detailed=true&api_key=t0TVs3DtDT2H8Oy2Zy8m2eVrNsAVKAexjcZXUckd",
    "self" : "https://api.nasa.gov/neo/rest/v1/feed?start_date=1998-02-15&end_date=1998-02-15&detailed=true&api_key=t0TVs3DtDT2H8Oy2Zy8m2eVrNsAVKAexjcZXUckd"
  },
  "element_count" : 7,
  "near_earth_objects" : {
    "1998-02-15" : [ {
      "links" : {
        "self" : "https://api.nasa.gov/neo/rest/v1/neo/3160853?api_key=t0TVs3DtDT2H8Oy2Zy8m2eVrNsAVKAexjcZXUckd"
      },
      "neo_reference_id" : "3160853",
      "name" : "(2003 TG2)",
      "nasa_jpl_url" : "http://ssd.jpl.nasa.gov/sbdb.cgi?sstr=3160853",
      "absolute_magnitude_h" : 21.3,
      "estimated_diameter" : {
        "kilometers" : {
          "estimated_diameter_min" : 0.1460679643,
          "estimated_diameter_max" : 0.3266178974
        },
        "meters" : {
          "estimated_diameter_min" : 146.0679642714,
          "estimated_diameter_max" : 326.6178974458
        },
        "miles" : {
          "estimated_diameter_min" : 0.090762397,
          "estimated_diameter_max" : 0.2029508896
        },
        "feet" : {
          "estimated_diameter_min" : 479.2256199,
          "estimated_diameter_max" : 1071.581062656
        }
      },
      "is_potentially_hazardous_asteroid" : false,
      "close_approach_data" : [ {
        "close_approach_date" : "1998-02-15",
        "epoch_date_close_approach" : 887529600000,
        "relative_velocity" : {
          "kilometers_per_second" : "17.0091579924",
          "kilometers_per_hour" : "61232.9687726407",
          "miles_per_hour" : "38047.7855132"
        },
        "miss_distance" : {
          "astronomical" : "0.4270826956",
          "lunar" : "166.1351623535",
          "kilometers" : "63890660",
          "miles" : "39699816"
        },
        "orbiting_body" : "Earth"
      } ],
      "orbital_data" : {
        "orbit_id" : "15",
        "orbit_determination_date" : "2017-04-06 09:13:42",
        "orbit_uncertainty" : "1",
        "minimum_orbit_intersection" : ".194743",
        "jupiter_tisserand_invariant" : "6.447",
        "epoch_osculation" : "2458000.5",
        "eccentricity" : ".3159909067244384",
        "semi_major_axis" : ".9078440731338071",
        "inclination" : "25.45520933631879",
        "ascending_node_longitude" : "200.6761345968185",
        "orbital_period" : "315.9477892091431",
        "perihelion_distance" : ".620973601299848",
        "perihelion_argument" : "355.1602365579089",
        "aphelion_distance" : "1.194714544967766",
        "perihelion_time" : "2458148.397337764099",
        "mean_anomaly" : "191.4815187396952",
        "mean_motion" : "1.139428767332492",
        "equinox" : "J2000"
      }
    }, {
      "links" : {
        "self" : "https://api.nasa.gov/neo/rest/v1/neo/3402134?api_key=t0TVs3DtDT2H8Oy2Zy8m2eVrNsAVKAexjcZXUckd"
      },
      "neo_reference_id" : "3402134",
      "name" : "(2008 CL20)",
      "nasa_jpl_url" : "http://ssd.jpl.nasa.gov/sbdb.cgi?sstr=3402134",
      "absolute_magnitude_h" : 25.3,
      "estimated_diameter" : {
        "kilometers" : {
          "estimated_diameter_min" : 0.0231502122,
          "estimated_diameter_max" : 0.0517654482
        },
        "meters" : {
          "estimated_diameter_min" : 23.150212221,
          "estimated_diameter_max" : 51.7654482198
        },
        "miles" : {
          "estimated_diameter_min" : 0.0143848705,
          "estimated_diameter_max" : 0.0321655483
        },
        "feet" : {
          "estimated_diameter_min" : 75.9521422633,
          "estimated_diameter_max" : 169.8341531374
        }
      },
      "is_potentially_hazardous_asteroid" : false,
      "close_approach_data" : [ {
        "close_approach_date" : "1998-02-15",
        "epoch_date_close_approach" : 887529600000,
        "relative_velocity" : {
          "kilometers_per_second" : "19.8225730514",
          "kilometers_per_hour" : "71361.2629849867",
          "miles_per_hour" : "44341.1136586436"
        },
        "miss_distance" : {
          "astronomical" : "0.374488146",
          "lunar" : "145.6758880615",
          "kilometers" : "56022628",
          "miles" : "34810848"
        },
        "orbiting_body" : "Earth"
      } ],
      "orbital_data" : {
        "orbit_id" : "11",
        "orbit_determination_date" : "2017-04-06 09:04:29",
        "orbit_uncertainty" : "7",
        "minimum_orbit_intersection" : ".0174886",
        "jupiter_tisserand_invariant" : "7.484",
        "epoch_osculation" : "2458000.5",
        "eccentricity" : ".3187798659007469",
        "semi_major_axis" : ".7669379674818089",
        "inclination" : "15.96749826892515",
        "ascending_node_longitude" : "321.2516247497641",
        "orbital_period" : "245.323292150214",
        "perihelion_distance" : ".5224535850537665",
        "perihelion_argument" : "349.6954035178186",
        "aphelion_distance" : "1.011422349909851",
        "perihelion_time" : "2458049.810063718708",
        "mean_anomaly" : "287.6398796741025",
        "mean_motion" : "1.467451365276674",
        "equinox" : "J2000"
      }
    }, {
      "links" : {
        "self" : "https://api.nasa.gov/neo/rest/v1/neo/3477703?api_key=t0TVs3DtDT2H8Oy2Zy8m2eVrNsAVKAexjcZXUckd"
      },
      "neo_reference_id" : "3477703",
      "name" : "(2009 WQ6)",
      "nasa_jpl_url" : "http://ssd.jpl.nasa.gov/sbdb.cgi?sstr=3477703",
      "absolute_magnitude_h" : 29.2,
      "estimated_diameter" : {
        "kilometers" : {
          "estimated_diameter_min" : 0.0038419789,
          "estimated_diameter_max" : 0.008590926
        },
        "meters" : {
          "estimated_diameter_min" : 3.8419789106,
          "estimated_diameter_max" : 8.5909260123
        },
        "miles" : {
          "estimated_diameter_min" : 0.0023872943,
          "estimated_diameter_max" : 0.0053381523
        },
        "feet" : {
          "estimated_diameter_min" : 12.6049180892,
          "estimated_diameter_max" : 28.1854536983
        }
      },
      "is_potentially_hazardous_asteroid" : false,
      "close_approach_data" : [ {
        "close_approach_date" : "1998-02-15",
        "epoch_date_close_approach" : 887529600000,
        "relative_velocity" : {
          "kilometers_per_second" : "9.0244911101",
          "kilometers_per_hour" : "32488.1679962678",
          "miles_per_hour" : "20186.8841641254"
        },
        "miss_distance" : {
          "astronomical" : "0.1560866013",
          "lunar" : "60.7176856995",
          "kilometers" : "23350222",
          "miles" : "14509155"
        },
        "orbiting_body" : "Earth"
      } ],
      "orbital_data" : {
        "orbit_id" : "6",
        "orbit_determination_date" : "2017-04-06 08:59:06",
        "orbit_uncertainty" : "5",
        "minimum_orbit_intersection" : ".00238665",
        "jupiter_tisserand_invariant" : "6.746",
        "epoch_osculation" : "2458000.5",
        "eccentricity" : ".4086228201648052",
        "semi_major_axis" : ".8665600916769487",
        "inclination" : "5.816976919203046",
        "ascending_node_longitude" : "55.601661511252",
        "orbital_period" : "294.6432208416104",
        "perihelion_distance" : ".5124638631736418",
        "perihelion_argument" : "227.3435173668688",
        "aphelion_distance" : "1.220656320180256",
        "perihelion_time" : "2458026.580884335746",
        "mean_anomaly" : "328.1339406552453",
        "mean_motion" : "1.22181667364247",
        "equinox" : "J2000"
      }
    } ]
  }
}